STARLINK-37631          
1 69369U 26123S   26162.83335647 -.00343798  51492-4 -74842-3 0  9992
2 69369  53.1569 268.4201 0000876  42.2318 261.9427 15.97413266  2342
STARLINK-37673          
1 69370U 26123T   26162.83335647 -.00670196  15871-3 -14175-2 0  9991
2 69370  53.1568 268.4021 0000857  34.7622 278.0898 15.98048629  2345
STARLINK-37645          
1 69371U 26123U   26162.83335647 -.02000152  11602-2 -42801-2 0  9997
2 69371  53.1570 268.3949 0000802  47.6035 268.5802 15.98065080  2347
STARLINK-37688          
1 69372U 26123V   26162.83335647 -.01806538  94753-3 -41058-2 0  9991
2 69372  53.1567 268.3377 0000785  46.7745 296.7089 15.96953392  2347
STARLINK-37685          
1 69373U 26123W   26162.83335647 -.01824128  96439-3 -41542-2 0  9998
2 69373  53.1566 268.3287 0000825  48.0345 299.7688 15.96918870  2343
STARLINK-37632          
1 69374U 26123X   26162.83335647 -.01821448  96098-3 -41655-2 0  9997
2 69374  53.1565 268.3215 0000883  55.7677 295.5322 15.96842377  2292
STARLINK-37454          
1 69375U 26123Y   26162.83335647 -.01830030  96956-3 -41821-2 0  9993
2 69375  53.1565 268.3063 0000821  56.7033 301.7096 15.96856900  2434
STARLINK-37485          
1 69376U 26123Z   26162.83335647 -.01818285  95829-3 -41490-2 0  9992
2 69376  53.1564 268.2976 0000897  50.1129 312.4046 15.96882582  2432
STARLINK-37439          
1 69377U 26123AA  26162.83335647 -.01777948  93602-3 -36934-2 0  9997
2 69377  53.1560 268.2655 0000950  57.9587 319.9560 15.98567182  2291
STARLINK-37376          
1 69378U 26123AB  26162.83335647 -.01792214  94028-3 -39264-2 0  9993
2 69378  53.1561 268.2685 0001061  35.4419 340.9021 15.97615844  2435
STARLINK-37383          
1 69379U 26123AC  26162.83335647 -.01777841  93515-3 -37087-2 0  9994
2 69379  53.1554 268.2197 0001005  35.9410   3.6310 15.98491891  2439
STARLINK-37411          
1 69380U 26123AD  26162.83335647 -.01799000  94782-3 -39218-2 0  9992
2 69380  53.1560 268.2542 0000933  51.7056 331.2490 15.97705930  2433
STARLINK-37427          
1 69381U 26123AE  26162.83335647 -.01733861  89130-3 -36450-2 0  9992
2 69381  53.1557 268.2329 0001010  34.6501 358.6463 15.98348324  2349
QIANFAN-165             
1 69382U 26124A   26162.82900079  .00000115  00000+0  42238-4 0  9994
2 69382  88.9985   2.6492 0002620 184.6823 175.4347 14.25644253  1055
QIANFAN-166             
1 69383U 26124B   26162.47731472  .00000241  00000+0  95780-4 0  9995
2 69383  88.9986   2.6893 0001742 196.1379 163.9759 14.25623990  1009
QIANFAN-167             
1 69384U 26124C   26161.91354878 -.01561002  00000+0 -78871+0 0  9992
2 69384  88.9989   2.7536 0003604 293.9957  66.0856 14.19974316   920
QIANFAN-168             
1 69385U 26124D   26161.84405580 -.01914124  00000+0 -92276+0 0  9994
2 69385  88.9981   2.7619 0005745 147.2677 212.8872 14.22619835   917
QIANFAN-169             
1 69386U 26124E   26161.91396583 -.01854010  00000+0 -89812+0 0  9994
2 69386  88.9980   2.7539 0007214 173.4169 186.7118 14.22235421   926
QIANFAN-170             
1 69387U 26124F   26161.84400992 -.01927219  00000+0 -92774+0 0  9990
2 69387  88.9981   2.7622 0007343 135.9027 224.2751 14.22716838   916
QIANFAN-171             
1 69388U 26124G   26161.84356534 -.01812081  00000+0 -88070+0 0  9997
2 69388  88.9982   2.7620 0009050 172.8482 187.2840 14.21967593   910
QIANFAN-172             
1 69389U 26124H   26161.84417786 -.01974196  00000+0 -94647+0 0  9998
2 69389  88.9979   2.7620 0006571 144.9469 215.2157 14.23032199   917
QIANFAN-173             
1 69390U 26124J   26161.84404007 -.01427296  00000+0 -67102+0 0  9992
2 69390  88.9989   2.7662 0021556  27.5748 332.6581 14.20891229   911
QIANFAN-174             
1 69391U 26124K   26162.54643546  .00000214  00000+0  82627-4 0  9992
2 69391  88.9986   2.6812 0001776 165.3397 194.7848 14.26655241  1011
QIANFAN-175             
1 69392U 26124L   26161.98357005 -.01762832  00000+0 -86426+0 0  9992
2 69392  88.9981   2.7458 0008895 183.7161 176.3966 14.22043621   932
QIANFAN-176             
1 69393U 26124M   26161.98347193 -.01637140  00000+0 -80748+0 0  9994
2 69393  88.9980   2.7458 0011326 168.0633 192.0828 14.21408117   931
QIANFAN-177             
1 69394U 26124N   26162.82688869  .00000134  00000+0  49303-4 0  9998
2 69394  88.9985   2.6488 0001711 166.0540 194.0701 14.26674971  1055
QIANFAN-178             
1 69395U 26124P   26161.98351871 -.01700532  00000+0 -83847+0 0  9993
2 69395  88.9981   2.7458 0009243 179.2577 180.8630 14.21589410   932
QIANFAN-179             
1 69396U 26124Q   26162.82685183  .00000115  00000+0  41495-4 0  9999
2 69396  88.9985   2.6488 0001675 166.4737 193.6502 14.26682037  1054
QIANFAN-180             
1 69397U 26124R   26162.82682426  .00000154  00000+0  57526-4 0  9992
2 69397  88.9986   2.6489 0001651 167.4196 192.7039 14.26687590  1055
QIANFAN-181             
1 69398U 26124S   26161.91503766 -.01897081  00000+0 -93061+0 0  9996
2 69398  88.9982   2.7542 0002684 126.0200 234.1240 14.21669897   922
