OBJECT_NAME,OBJECT_ID,EPOCH,MEAN_MOTION,ECCENTRICITY,INCLINATION,RA_OF_ASC_NODE,ARG_OF_PERICENTER,MEAN_ANOMALY,EPHEMERIS_TYPE,CLASSIFICATION_TYPE,NORAD_CAT_ID,ELEMENT_SET_NO,REV_AT_EPOCH,BSTAR,MEAN_MOTION_DOT,MEAN_MOTION_DDOT
STARLINK-37631,2026-123S,2026-06-11T20:00:01.999008,15.97413266,.0000876,53.1569,268.4201,42.2318,261.9427,0,U,69369,999,234,-.74842E-3,-.343798E-2,.51492E-4
STARLINK-37673,2026-123T,2026-06-11T20:00:01.999008,15.98048629,.0000857,53.1568,268.4021,34.7622,278.0898,0,U,69370,999,234,-.14175E-2,-.670196E-2,.15871E-3
STARLINK-37645,2026-123U,2026-06-11T20:00:01.999008,15.98065080,.0000802,53.1570,268.3949,47.6035,268.5802,0,U,69371,999,234,-.42801E-2,-.2000152E-1,.11602E-2
STARLINK-37688,2026-123V,2026-06-11T20:00:01.999008,15.96953392,.0000785,53.1567,268.3377,46.7745,296.7089,0,U,69372,999,234,-.41058E-2,-.1806538E-1,.94753E-3
STARLINK-37685,2026-123W,2026-06-11T20:00:01.999008,15.96918870,.0000825,53.1566,268.3287,48.0345,299.7688,0,U,69373,999,234,-.41542E-2,-.1824128E-1,.96439E-3
STARLINK-37632,2026-123X,2026-06-11T20:00:01.999008,15.96842377,.0000883,53.1565,268.3215,55.7677,295.5322,0,U,69374,999,229,-.41655E-2,-.1821448E-1,.96098E-3
STARLINK-37454,2026-123Y,2026-06-11T20:00:01.999008,15.96856900,.0000821,53.1565,268.3063,56.7033,301.7096,0,U,69375,999,243,-.41821E-2,-.183003E-1,.96956E-3
STARLINK-37485,2026-123Z,2026-06-11T20:00:01.999008,15.96882582,.0000897,53.1564,268.2976,50.1129,312.4046,0,U,69376,999,243,-.4149E-2,-.1818285E-1,.95829E-3
STARLINK-37439,2026-123AA,2026-06-11T20:00:01.999008,15.98567182,.000095,53.1560,268.2655,57.9587,319.9560,0,U,69377,999,229,-.36934E-2,-.1777948E-1,.93602E-3
STARLINK-37376,2026-123AB,2026-06-11T20:00:01.999008,15.97615844,.0001061,53.1561,268.2685,35.4419,340.9021,0,U,69378,999,243,-.39264E-2,-.1792214E-1,.94028E-3
STARLINK-37383,2026-123AC,2026-06-11T20:00:01.999008,15.98491891,.0001005,53.1554,268.2197,35.9410,3.6310,0,U,69379,999,243,-.37087E-2,-.1777841E-1,.93515E-3
STARLINK-37411,2026-123AD,2026-06-11T20:00:01.999008,15.97705930,.0000933,53.1560,268.2542,51.7056,331.2490,0,U,69380,999,243,-.39218E-2,-.1799E-1,.94782E-3
STARLINK-37427,2026-123AE,2026-06-11T20:00:01.999008,15.98348324,.000101,53.1557,268.2329,34.6501,358.6463,0,U,69381,999,234,-.3645E-2,-.1733861E-1,.8913E-3
QIANFAN-165,2026-124A,2026-06-11T19:53:45.668256,14.25644253,.000262,88.9985,2.6492,184.6823,175.4347,0,U,69382,999,105,.42238E-4,.115E-5,0
QIANFAN-166,2026-124B,2026-06-11T11:27:19.991808,14.25623990,.0001742,88.9986,2.6893,196.1379,163.9759,0,U,69383,999,100,.9578E-4,.241E-5,0
QIANFAN-167,2026-124C,2026-06-10T21:55:30.614592,14.19974316,.00036045,88.9989,2.7536,293.9957,66.0856,0,U,69384,999,92,-.78870914E+0,-.1561002E-1,0
QIANFAN-168,2026-124D,2026-06-10T20:15:26.421120,14.22619835,.00057451,88.9981,2.7619,147.2677,212.8872,0,U,69385,999,91,-.92275734E+0,-.1914124E-1,0
QIANFAN-169,2026-124E,2026-06-10T21:56:06.647712,14.22235421,.00072145,88.9980,2.7539,173.4169,186.7118,0,U,69386,999,92,-.89812046E+0,-.185401E-1,0
QIANFAN-170,2026-124F,2026-06-10T20:15:22.457088,14.22716838,.00073437,88.9981,2.7622,135.9027,224.2751,0,U,69387,999,91,-.92773747E+0,-.1927219E-1,0
QIANFAN-171,2026-124G,2026-06-10T20:14:44.045376,14.21967593,.00090503,88.9982,2.7620,172.8482,187.2840,0,U,69388,999,91,-.88070283E+0,-.1812081E-1,0
QIANFAN-172,2026-124H,2026-06-10T20:15:36.967104,14.23032199,.00065718,88.9979,2.7620,144.9469,215.2157,0,U,69389,999,91,-.94647039E+0,-.1974196E-1,0
QIANFAN-173,2026-124J,2026-06-10T20:15:25.062048,14.20891229,.00215566,88.9989,2.7662,27.5748,332.6581,0,U,69390,999,91,-.67101907E+0,-.1427296E-1,0
QIANFAN-174,2026-124K,2026-06-11T13:06:52.023744,14.26655241,.0001776,88.9986,2.6812,165.3397,194.7848,0,U,69391,999,101,.82627E-4,.214E-5,0
QIANFAN-175,2026-124L,2026-06-10T23:36:20.452320,14.22043621,.00088953,88.9981,2.7458,183.7161,176.3966,0,U,69392,999,93,-.86425771E+0,-.1762832E-1,0
QIANFAN-176,2026-124M,2026-06-10T23:36:11.974752,14.21408117,.0011326,88.9980,2.7458,168.0633,192.0828,0,U,69393,999,93,-.80747588E+0,-.163714E-1,0
QIANFAN-177,2026-124N,2026-06-11T19:50:43.182816,14.26674971,.0001711,88.9985,2.6488,166.0540,194.0701,0,U,69394,999,105,.49303E-4,.134E-5,0
QIANFAN-178,2026-124P,2026-06-10T23:36:16.016544,14.21589410,.00092439,88.9981,2.7458,179.2577,180.8630,0,U,69395,999,93,-.83847437E+0,-.1700532E-1,0
QIANFAN-179,2026-124Q,2026-06-11T19:50:39.998112,14.26682037,.0001675,88.9985,2.6488,166.4737,193.6502,0,U,69396,999,105,.41495E-4,.115E-5,0
QIANFAN-180,2026-124R,2026-06-11T19:50:37.616064,14.26687590,.0001651,88.9986,2.6489,167.4196,192.7039,0,U,69397,999,105,.57526E-4,.154E-5,0
QIANFAN-181,2026-124S,2026-06-10T21:57:39.253824,14.21669897,.00026846,88.9982,2.7542,126.0200,234.1240,0,U,69398,999,92,-.93060969E+0,-.1897081E-1,0
